ALOS-4 (DAICHI-4)       
1 60182U 24123A   24258.81070924  .00002937  00000+0  40010-3 0  9999
2 60182  97.9212 354.1811 0001532  96.1214 264.0172 14.79466689 11190
